0 DELTA 1 R/B
1 04251U 69101B   13280.90736764  .00000677  00000-0  43442-3 0  6127
2 04251 027.8001 110.9835 5642318 217.0461 345.2847 04.49496800467531
0 DELTA 1 R/B
1 04251U 69101B   13282.90890834  .00000609  00000-0  44789-3 0  6139
2 04251 027.8025 109.2891 5642260 219.8397 344.1521 04.49501842467624
0 DELTA 1 R/B
1 04251U 69101B   13285.79056553  .00000694  00000-0  51955-3 0  6149
2 04251 027.8052 106.8498 5642185 223.8610 327.2792 04.49506105467752
0 DELTA 1 R/B
1 04251U 69101B   13290.30764939  .00001045  00000-0  65488-3 0  6154
2 04251 027.8069 103.0263 5642147 230.1622 076.9669 04.49515847467957
0 DELTA 1 R/B
1 04251U 69101B   13291.39789062  .00000982  00000-0  60670-3 0  6166
2 04251 027.8077 102.1037 5642229 231.6839 041.2494 04.49517535468006
0 DELTA 1 R/B
1 04251U 69101B   13293.80102829  .00001065  00000-0  69023-3 0  6179
2 04251 027.8084 100.0696 5642248 235.0348 330.1682 04.49522183468112
